[{"OBJECT_NAME":"GAOFEN-12 04","OBJECT_ID":"2023-123A","EPOCH":"2026-03-09T23:07:49.236384","MEAN_MOTION":14.80004662,"ECCENTRICITY":0.00016529,"INCLINATION":97.9129,"RA_OF_ASC_NODE":348.4218,"ARG_OF_PERICENTER":75.8828,"MEAN_ANOMALY":284.2567,"EPHEMERIS_TYPE":0,"CLASSIFICATION_TYPE":"U","NORAD_CAT_ID":57654,"ELEMENT_SET_NO":999,"REV_AT_EPOCH":13795,"BSTAR":0.00022872409,"MEAN_MOTION_DOT":1.679e-5,"MEAN_MOTION_DDOT":0},{"OBJECT_NAME":"KUIPER-00079","OBJECT_ID":"2025-151L","EPOCH":"2026-03-09T19:51:29.525184","MEAN_MOTION":14.79928203,"ECCENTRICITY":8.516e-5,"INCLINATION":51.8985,"RA_OF_ASC_NODE":299.9538,"ARG_OF_PERICENTER":76.9433,"MEAN_ANOMALY":283.1624,"EPHEMERIS_TYPE":0,"CLASSIFICATION_TYPE":"U","NORAD_CAT_ID":64826,"ELEMENT_SET_NO":999,"REV_AT_EPOCH":3652,"BSTAR":-2.9016916e-5,"MEAN_MOTION_DOT":-4.42e-6,"MEAN_MOTION_DDOT":0}]
